[{"OBJECT_NAME":"STARLINK-5771","OBJECT_ID":"2023-042AP","EPOCH":"2026-03-09T07:43:44.707008","MEAN_MOTION":15.03041905,"ECCENTRICITY":0.00018472,"INCLINATION":43.0045,"RA_OF_ASC_NODE":45.2113,"ARG_OF_PERICENTER":257.6913,"MEAN_ANOMALY":102.3723,"EPHEMERIS_TYPE":0,"CLASSIFICATION_TYPE":"U","NORAD_CAT_ID":56023,"ELEMENT_SET_NO":999,"REV_AT_EPOCH":16300,"BSTAR":0.0045779413,"MEAN_MOTION_DOT":0.00063039,"MEAN_MOTION_DDOT":0},{"OBJECT_NAME":"PEGASUS DEB","OBJECT_ID":"1994-029LA","EPOCH":"2026-03-09T18:29:08.733408","MEAN_MOTION":14.76409113,"ECCENTRICITY":0.01360091,"INCLINATION":82.0422,"RA_OF_ASC_NODE":179.0624,"ARG_OF_PERICENTER":235.64,"MEAN_ANOMALY":242.608,"EPHEMERIS_TYPE":0,"CLASSIFICATION_TYPE":"U","NORAD_CAT_ID":24227,"ELEMENT_SET_NO":999,"REV_AT_EPOCH":58708,"BSTAR":0.0004416374,"MEAN_MOTION_DOT":3.597e-5,"MEAN_MOTION_DDOT":0}]
